[{"place_fips": "1270600", "place_name": "St. Petersburg city", "state_fips": "12", "recent_units_2024": 14853, "growth_rate_5yr": 9.1, "mf_share_recent": 59.7, "rank_permits_national": 309, "rank_growth_national": 343}, {"place_fips": "4261000", "place_name": "Pittsburgh city", "state_fips": "42", "recent_units_2024": 14730, "growth_rate_5yr": 33.1, "mf_share_recent": 35.2, "rank_permits_national": 218, "rank_growth_national": 163}, {"place_fips": "0473000", "place_name": "Tempe city", "state_fips": "04", "recent_units_2024": 14634, "growth_rate_5yr": -2.5, "mf_share_recent": 55.2, "rank_permits_national": 452, "rank_growth_national": 409}, {"place_fips": "3774000", "place_name": "Winston-Salem city", "state_fips": "37", "recent_units_2024": 14524, "growth_rate_5yr": -9.8, "mf_share_recent": 57.6, "rank_permits_national": 262, "rank_growth_national": 190}, {"place_fips": "0603526", "place_name": "Anaheim city", "state_fips": "06", "recent_units_2024": 14489, "growth_rate_5yr": 13.1, "mf_share_recent": 38.6, "rank_permits_national": 388, "rank_growth_national": 398}, {"place_fips": "4123850", "place_name": "Eugene city", "state_fips": "41", "recent_units_2024": 14454, "growth_rate_5yr": -4.3, "mf_share_recent": 12.8, "rank_permits_national": 370, "rank_growth_national": 136}, {"place_fips": "4824000", "place_name": "El Paso city", "state_fips": "48", "recent_units_2024": 14338, "growth_rate_5yr": 24.6, "mf_share_recent": 47.8, "rank_permits_national": 391, "rank_growth_national": 100}, {"place_fips": "2743000", "place_name": "Minneapolis city", "state_fips": "27", "recent_units_2024": 14133, "growth_rate_5yr": 33.4, "mf_share_recent": 23.6, "rank_permits_national": 269, "rank_growth_national": 99}, {"place_fips": "1273000", "place_name": "Tallahassee city", "state_fips": "12", "recent_units_2024": 14108, "growth_rate_5yr": -6.7, "mf_share_recent": 61.7, "rank_permits_national": 441, "rank_growth_national": 76}, {"place_fips": "4841464", "place_name": "Laredo city", "state_fips": "48", "recent_units_2024": 14052, "growth_rate_5yr": 33.8, "mf_share_recent": 25.9, "rank_permits_national": 30, "rank_growth_national": 491}, {"place_fips": "3901000", "place_name": "Akron city", "state_fips": "39", "recent_units_2024": 13918, "growth_rate_5yr": 32.9, "mf_share_recent": 30.6, "rank_permits_national": 203, "rank_growth_national": 279}, {"place_fips": "1227400", "place_name": "Fort Lauderdale city", "state_fips": "12", "recent_units_2024": 13647, "growth_rate_5yr": -1.5, "mf_share_recent": 25.1, "rank_permits_national": 217, "rank_growth_national": 2}, {"place_fips": "4865000", "place_name": "San Antonio city", "state_fips": "48", "recent_units_2024": 13574, "growth_rate_5yr": 34.0, "mf_share_recent": 38.0, "rank_permits_national": 123, "rank_growth_national": 204}, {"place_fips": "1349000", "place_name": "Macon-Bibb County", "state_fips": "13", "recent_units_2024": 13506, "growth_rate_5yr": 9.7, "mf_share_recent": 5.9, "rank_permits_national": 147, "rank_growth_national": 207}, {"place_fips": "5375775", "place_name": "Vancouver city", "state_fips": "53", "recent_units_2024": 13333, "growth_rate_5yr": 32.1, "mf_share_recent": 20.0, "rank_permits_national": 208, "rank_growth_national": 307}, {"place_fips": "4845000", "place_name": "Lubbock city", "state_fips": "48", "recent_units_2024": 12962, "growth_rate_5yr": 33.6, "mf_share_recent": 56.2, "rank_permits_national": 495, "rank_growth_national": 42}, {"place_fips": "0667000", "place_name": "San Francisco city", "state_fips": "06", "recent_units_2024": 12866, "growth_rate_5yr": 32.8, "mf_share_recent": 61.7, "rank_permits_national": 87, "rank_growth_national": 202}, {"place_fips": "5307380", "place_name": "Bellevue city", "state_fips": "53", "recent_units_2024": 12659, "growth_rate_5yr": 10.6, "mf_share_recent": 40.7, "rank_permits_national": 304, "rank_growth_national": 59}, {"place_fips": "3921000", "place_name": "Dayton city", "state_fips": "39", "recent_units_2024": 12637, "growth_rate_5yr": 3.7, "mf_share_recent": 54.0, "rank_permits_national": 349, "rank_growth_national": 192}, {"place_fips": "2545000", "place_name": "Lowell city", "state_fips": "25", "recent_units_2024": 12331, "growth_rate_5yr": 28.5, "mf_share_recent": 64.6, "rank_permits_national": 131, "rank_growth_national": 202}, {"place_fips": "0427820", "place_name": "Glendale city", "state_fips": "04", "recent_units_2024": 12092, "growth_rate_5yr": -4.9, "mf_share_recent": 39.5, "rank_permits_national": 306, "rank_growth_national": 105}, {"place_fips": "0644000", "place_name": "Los Angeles city", "state_fips": "06", "recent_units_2024": 11981, "growth_rate_5yr": 33.5, "mf_share_recent": 37.0, "rank_permits_national": 331, "rank_growth_national": 389}, {"place_fips": "5147672", "place_name": "Norfolk city", "state_fips": "51", "recent_units_2024": 11936, "growth_rate_5yr": 9.7, "mf_share_recent": 7.0, "rank_permits_national": 17, "rank_growth_national": 383}, {"place_fips": "3065000", "place_name": "Helena city", "state_fips": "30", "recent_units_2024": 11504, "growth_rate_5yr": 19.6, "mf_share_recent": 19.2, "rank_permits_national": 129, "rank_growth_national": 233}, {"place_fips": "0665000", "place_name": "Sacramento city", "state_fips": "06", "recent_units_2024": 11332, "growth_rate_5yr": 0.8, "mf_share_recent": 49.2, "rank_permits_national": 343, "rank_growth_national": 273}, {"place_fips": "0407940", "place_name": "Chandler city", "state_fips": "04", "recent_units_2024": 11288, "growth_rate_5yr": 13.3, "mf_share_recent": 58.3, "rank_permits_national": 127, "rank_growth_national": 338}, {"place_fips": "4269000", "place_name": "Scranton city", "state_fips": "42", "recent_units_2024": 11132, "growth_rate_5yr": 2.1, "mf_share_recent": 61.5, "rank_permits_national": 78, "rank_growth_national": 433}, {"place_fips": "1714000", "place_name": "Chicago city", "state_fips": "17", "recent_units_2024": 11129, "growth_rate_5yr": 25.1, "mf_share_recent": 39.3, "rank_permits_national": 494, "rank_growth_national": 398}, {"place_fips": "0427400", "place_name": "Gilbert town", "state_fips": "04", "recent_units_2024": 11120, "growth_rate_5yr": -1.8, "mf_share_recent": 61.7, "rank_permits_national": 190, "rank_growth_national": 144}, {"place_fips": "4819000", "place_name": "Dallas city", "state_fips": "48", "recent_units_2024": 10895, "growth_rate_5yr": 15.2, "mf_share_recent": 47.1, "rank_permits_national": 344, "rank_growth_national": 18}, {"place_fips": "1232275", "place_name": "Hialeah city", "state_fips": "12", "recent_units_2024": 10889, "growth_rate_5yr": 1.0, "mf_share_recent": 43.3, "rank_permits_national": 439, "rank_growth_national": 266}, {"place_fips": "5367000", "place_name": "Spokane city", "state_fips": "53", "recent_units_2024": 10625, "growth_rate_5yr": 20.7, "mf_share_recent": 27.1, "rank_permits_national": 349, "rank_growth_national": 221}, {"place_fips": "1253000", "place_name": "Orlando city", "state_fips": "12", "recent_units_2024": 10602, "growth_rate_5yr": -6.8, "mf_share_recent": 41.1, "rank_permits_national": 482, "rank_growth_national": 499}, {"place_fips": "1765000", "place_name": "Rockford city", "state_fips": "17", "recent_units_2024": 10550, "growth_rate_5yr": -13.6, "mf_share_recent": 16.7, "rank_permits_national": 81, "rank_growth_national": 17}, {"place_fips": "0446000", "place_name": "Mesa city", "state_fips": "04", "recent_units_2024": 10503, "growth_rate_5yr": 17.2, "mf_share_recent": 63.8, "rank_permits_national": 319, "rank_growth_national": 457}, {"place_fips": "1271000", "place_name": "Tampa city", "state_fips": "12", "recent_units_2024": 10500, "growth_rate_5yr": 0.5, "mf_share_recent": 31.1, "rank_permits_national": 140, "rank_growth_national": 384}, {"place_fips": "4804000", "place_name": "Austin city", "state_fips": "48", "recent_units_2024": 10386, "growth_rate_5yr": 31.6, "mf_share_recent": 40.0, "rank_permits_national": 281, "rank_growth_national": 123}, {"place_fips": "4835000", "place_name": "Houston city", "state_fips": "48", "recent_units_2024": 10235, "growth_rate_5yr": -11.7, "mf_share_recent": 59.8, "rank_permits_national": 275, "rank_growth_national": 246}, {"place_fips": "3915000", "place_name": "Cincinnati city", "state_fips": "39", "recent_units_2024": 10185, "growth_rate_5yr": -7.2, "mf_share_recent": 63.7, "rank_permits_national": 106, "rank_growth_national": 267}, {"place_fips": "1257425", "place_name": "Port St. Lucie city", "state_fips": "12", "recent_units_2024": 10041, "growth_rate_5yr": -10.7, "mf_share_recent": 21.5, "rank_permits_national": 177, "rank_growth_national": 390}, {"place_fips": "2511000", "place_name": "Cambridge city", "state_fips": "25", "recent_units_2024": 9851, "growth_rate_5yr": 9.3, "mf_share_recent": 7.1, "rank_permits_national": 417, "rank_growth_national": 393}, {"place_fips": "0455000", "place_name": "Phoenix city", "state_fips": "04", "recent_units_2024": 9561, "growth_rate_5yr": 0.5, "mf_share_recent": 58.5, "rank_permits_national": 260, "rank_growth_national": 286}, {"place_fips": "3687000", "place_name": "Yonkers city", "state_fips": "36", "recent_units_2024": 9559, "growth_rate_5yr": 30.5, "mf_share_recent": 53.4, "rank_permits_national": 280, "rank_growth_national": 283}, {"place_fips": "5363000", "place_name": "Seattle city", "state_fips": "53", "recent_units_2024": 9470, "growth_rate_5yr": 25.3, "mf_share_recent": 25.7, "rank_permits_national": 23, "rank_growth_national": 492}, {"place_fips": "3916000", "place_name": "Cleveland city", "state_fips": "39", "recent_units_2024": 9289, "growth_rate_5yr": 18.7, "mf_share_recent": 6.1, "rank_permits_national": 157, "rank_growth_national": 304}, {"place_fips": "2758000", "place_name": "St. Paul city", "state_fips": "27", "recent_units_2024": 9269, "growth_rate_5yr": -5.4, "mf_share_recent": 45.2, "rank_permits_national": 442, "rank_growth_national": 382}, {"place_fips": "0668000", "place_name": "San Jose city", "state_fips": "06", "recent_units_2024": 9065, "growth_rate_5yr": -14.1, "mf_share_recent": 41.7, "rank_permits_national": 228, "rank_growth_national": 22}, {"place_fips": "0664000", "place_name": "San Diego city", "state_fips": "06", "recent_units_2024": 9045, "growth_rate_5yr": 6.3, "mf_share_recent": 15.3, "rank_permits_national": 337, "rank_growth_national": 69}, {"place_fips": "3722920", "place_name": "Fayetteville city", "state_fips": "37", "recent_units_2024": 8703, "growth_rate_5yr": 3.7, "mf_share_recent": 44.7, "rank_permits_national": 197, "rank_growth_national": 248}, {"place_fips": "3601000", "place_name": "Albany city", "state_fips": "36", "recent_units_2024": 8510, "growth_rate_5yr": 12.5, "mf_share_recent": 34.8, "rank_permits_national": 180, "rank_growth_national": 270}, {"place_fips": "1319000", "place_name": "Columbus city", "state_fips": "13", "recent_units_2024": 8494, "growth_rate_5yr": 22.6, "mf_share_recent": 45.2, "rank_permits_national": 403, "rank_growth_national": 485}, {"place_fips": "0273000", "place_name": "Scottsdale city", "state_fips": "04", "recent_units_2024": 8469, "growth_rate_5yr": 29.5, "mf_share_recent": 31.3, "rank_permits_national": 145, "rank_growth_national": 433}, {"place_fips": "3719000", "place_name": "Durham city", "state_fips": "37", "recent_units_2024": 8454, "growth_rate_5yr": 18.9, "mf_share_recent": 39.4, "rank_permits_national": 142, "rank_growth_national": 66}, {"place_fips": "1703012", "place_name": "Aurora city", "state_fips": "17", "recent_units_2024": 8342, "growth_rate_5yr": 31.7, "mf_share_recent": 25.1, "rank_permits_national": 366, "rank_growth_national": 73}, {"place_fips": "0627000", "place_name": "Fresno city", "state_fips": "06", "recent_units_2024": 7820, "growth_rate_5yr": 33.3, "mf_share_recent": 63.8, "rank_permits_national": 150, "rank_growth_national": 123}, {"place_fips": "1235000", "place_name": "Jacksonville city", "state_fips": "12", "recent_units_2024": 7337, "growth_rate_5yr": 30.1, "mf_share_recent": 58.6, "rank_permits_national": 457, "rank_growth_national": 396}, {"place_fips": "0616000", "place_name": "Irvine city", "state_fips": "06", "recent_units_2024": 7162, "growth_rate_5yr": -1.9, "mf_share_recent": 19.4, "rank_permits_national": 460, "rank_growth_national": 89}, {"place_fips": "4801000", "place_name": "Arlington city", "state_fips": "48", "recent_units_2024": 7128, "growth_rate_5yr": 20.9, "mf_share_recent": 29.4, "rank_permits_national": 93, "rank_growth_national": 183}, {"place_fips": "1303436", "place_name": "Augusta-Richmond County", "state_fips": "13", "recent_units_2024": 7095, "growth_rate_5yr": 9.0, "mf_share_recent": 26.1, "rank_permits_national": 303, "rank_growth_national": 193}, {"place_fips": "4263624", "place_name": "Reading city", "state_fips": "42", "recent_units_2024": 6928, "growth_rate_5yr": 34.7, "mf_share_recent": 53.5, "rank_permits_national": 440, "rank_growth_national": 485}, {"place_fips": "1212875", "place_name": "Cape Coral city", "state_fips": "12", "recent_units_2024": 6774, "growth_rate_5yr": 11.3, "mf_share_recent": 51.9, "rank_permits_national": 398, "rank_growth_national": 363}, {"place_fips": "2507000", "place_name": "Boston city", "state_fips": "25", "recent_units_2024": 6206, "growth_rate_5yr": -11.6, "mf_share_recent": 53.1, "rank_permits_national": 26, "rank_growth_national": 116}, {"place_fips": "0477000", "place_name": "Tucson city", "state_fips": "04", "recent_units_2024": 6180, "growth_rate_5yr": 32.7, "mf_share_recent": 23.8, "rank_permits_national": 487, "rank_growth_national": 358}, {"place_fips": "3977000", "place_name": "Toledo city", "state_fips": "39", "recent_units_2024": 6140, "growth_rate_5yr": -7.3, "mf_share_recent": 49.5, "rank_permits_national": 368, "rank_growth_national": 285}, {"place_fips": "3755000", "place_name": "Raleigh city", "state_fips": "37", "recent_units_2024": 5680, "growth_rate_5yr": 3.7, "mf_share_recent": 40.0, "rank_permits_national": 485, "rank_growth_national": 267}, {"place_fips": "1767886", "place_name": "Springfield city", "state_fips": "17", "recent_units_2024": 5616, "growth_rate_5yr": 2.3, "mf_share_recent": 25.1, "rank_permits_national": 315, "rank_growth_national": 381}, {"place_fips": "1751622", "place_name": "Naperville city", "state_fips": "17", "recent_units_2024": 5577, "growth_rate_5yr": -11.2, "mf_share_recent": 38.3, "rank_permits_national": 86, "rank_growth_national": 335}, {"place_fips": "3673000", "place_name": "Syracuse city", "state_fips": "36", "recent_units_2024": 5543, "growth_rate_5yr": 30.5, "mf_share_recent": 46.8, "rank_permits_national": 393, "rank_growth_national": 410}, {"place_fips": "0804000", "place_name": "Aurora city", "state_fips": "08", "recent_units_2024": 5412, "growth_rate_5yr": -0.7, "mf_share_recent": 23.9, "rank_permits_national": 8, "rank_growth_national": 132}, {"place_fips": "0820000", "place_name": "Denver city", "state_fips": "08", "recent_units_2024": 4996, "growth_rate_5yr": -5.9, "mf_share_recent": 28.8, "rank_permits_national": 286, "rank_growth_national": 91}, {"place_fips": "0843000", "place_name": "Lakewood city", "state_fips": "08", "recent_units_2024": 4440, "growth_rate_5yr": -10.9, "mf_share_recent": 6.1, "rank_permits_national": 323, "rank_growth_national": 365}, {"place_fips": "5182000", "place_name": "Virginia Beach city", "state_fips": "51", "recent_units_2024": 4424, "growth_rate_5yr": 0.6, "mf_share_recent": 9.0, "rank_permits_national": 200, "rank_growth_national": 63}, {"place_fips": "1738570", "place_name": "Joliet city", "state_fips": "17", "recent_units_2024": 4319, "growth_rate_5yr": -2.2, "mf_share_recent": 6.9, "rank_permits_national": 79, "rank_growth_national": 55}, {"place_fips": "3918000", "place_name": "Columbus city", "state_fips": "39", "recent_units_2024": 4252, "growth_rate_5yr": 14.2, "mf_share_recent": 25.9, "rank_permits_national": 247, "rank_growth_national": 105}, {"place_fips": "2567000", "place_name": "Worcester city", "state_fips": "25", "recent_units_2024": 4191, "growth_rate_5yr": -7.7, "mf_share_recent": 23.7, "rank_permits_national": 486, "rank_growth_national": 81}, {"place_fips": "4827000", "place_name": "Fort Worth city", "state_fips": "48", "recent_units_2024": 4178, "growth_rate_5yr": 22.5, "mf_share_recent": 54.3, "rank_permits_national": 285, "rank_growth_national": 207}, {"place_fips": "4224000", "place_name": "Erie city", "state_fips": "42", "recent_units_2024": 3880, "growth_rate_5yr": -0.5, "mf_share_recent": 10.8, "rank_permits_national": 462, "rank_growth_national": 95}, {"place_fips": "0670000", "place_name": "Santa Ana city", "state_fips": "06", "recent_units_2024": 3735, "growth_rate_5yr": 18.5, "mf_share_recent": 34.4, "rank_permits_national": 490, "rank_growth_national": 80}, {"place_fips": "5110000", "place_name": "Richmond city", "state_fips": "51", "recent_units_2024": 3527, "growth_rate_5yr": 22.4, "mf_share_recent": 26.6, "rank_permits_national": 20, "rank_growth_national": 461}, {"place_fips": "3728000", "place_name": "Greensboro city", "state_fips": "37", "recent_units_2024": 3493, "growth_rate_5yr": 14.1, "mf_share_recent": 61.8, "rank_permits_national": 198, "rank_growth_national": 353}, {"place_fips": "5374060", "place_name": "Tacoma city", "state_fips": "53", "recent_units_2024": 2868, "growth_rate_5yr": 4.3, "mf_share_recent": 19.7, "rank_permits_national": 100, "rank_growth_national": 5}, {"place_fips": "3651000", "place_name": "New York city", "state_fips": "36", "recent_units_2024": 2815, "growth_rate_5yr": 24.3, "mf_share_recent": 29.0, "rank_permits_national": 286, "rank_growth_national": 300}, {"place_fips": "4159000", "place_name": "Portland city", "state_fips": "41", "recent_units_2024": 2776, "growth_rate_5yr": 9.4, "mf_share_recent": 51.7, "rank_permits_national": 444, "rank_growth_national": 265}, {"place_fips": "2637000", "place_name": "Springfield city", "state_fips": "25", "recent_units_2024": 2747, "growth_rate_5yr": 8.2, "mf_share_recent": 21.8, "rank_permits_national": 486, "rank_growth_national": 101}, {"place_fips": "3663000", "place_name": "Rochester city", "state_fips": "36", "recent_units_2024": 2223, "growth_rate_5yr": -4.9, "mf_share_recent": 22.7, "rank_permits_national": 192, "rank_growth_national": 324}, {"place_fips": "0816000", "place_name": "Colorado Springs city", "state_fips": "08", "recent_units_2024": 1961, "growth_rate_5yr": 4.9, "mf_share_recent": 36.3, "rank_permits_national": 369, "rank_growth_national": 468}, {"place_fips": "3712000", "place_name": "Charlotte city", "state_fips": "37", "recent_units_2024": 1745, "growth_rate_5yr": 17.5, "mf_share_recent": 38.0, "rank_permits_national": 358, "rank_growth_national": 195}, {"place_fips": "4202000", "place_name": "Allentown city", "state_fips": "42", "recent_units_2024": 1347, "growth_rate_5yr": 7.9, "mf_share_recent": 40.0, "rank_permits_national": 495, "rank_growth_national": 474}, {"place_fips": "1757225", "place_name": "Peoria city", "state_fips": "17", "recent_units_2024": 1291, "growth_rate_5yr": -14.6, "mf_share_recent": 10.6, "rank_permits_national": 478, "rank_growth_national": 105}, {"place_fips": "1723074", "place_name": "Elgin city", "state_fips": "17", "recent_units_2024": 986, "growth_rate_5yr": 31.0, "mf_share_recent": 7.0, "rank_permits_national": 303, "rank_growth_national": 154}, {"place_fips": "3006550", "place_name": "Billings city", "state_fips": "30", "recent_units_2024": 810, "growth_rate_5yr": 16.8, "mf_share_recent": 7.9, "rank_permits_national": 432, "rank_growth_national": 113}, {"place_fips": "1245000", "place_name": "Miami city", "state_fips": "12", "recent_units_2024": 684, "growth_rate_5yr": 13.2, "mf_share_recent": 49.7, "rank_permits_national": 243, "rank_growth_national": 175}, {"place_fips": "3611000", "place_name": "Buffalo city", "state_fips": "36", "recent_units_2024": 683, "growth_rate_5yr": -1.4, "mf_share_recent": 24.4, "rank_permits_national": 160, "rank_growth_national": 65}, {"place_fips": "4856000", "place_name": "Plano city", "state_fips": "48", "recent_units_2024": 602, "growth_rate_5yr": 7.6, "mf_share_recent": 12.9, "rank_permits_national": 93, "rank_growth_national": 231}, {"place_fips": "4260000", "place_name": "Philadelphia city", "state_fips": "42", "recent_units_2024": 445, "growth_rate_5yr": 0.4, "mf_share_recent": 41.6, "rank_permits_national": 368, "rank_growth_national": 294}, {"place_fips": "0827425", "place_name": "Fort Collins city", "state_fips": "08", "recent_units_2024": 423, "growth_rate_5yr": 14.4, "mf_share_recent": 39.3, "rank_permits_national": 10, "rank_growth_national": 237}, {"place_fips": "1304000", "place_name": "Atlanta city", "state_fips": "13", "recent_units_2024": 338, "growth_rate_5yr": 10.4, "mf_share_recent": 39.0, "rank_permits_national": 70, "rank_growth_national": 342}, {"place_fips": "1367284", "place_name": "Savannah city", "state_fips": "13", "recent_units_2024": 205, "growth_rate_5yr": 32.7, "mf_share_recent": 38.4, "rank_permits_national": 245, "rank_growth_national": 386}, {"place_fips": "0653000", "place_name": "Oakland city", "state_fips": "06", "recent_units_2024": 90, "growth_rate_5yr": 12.4, "mf_share_recent": 43.9, "rank_permits_national": 99, "rank_growth_national": 207}]